[{"OBJECT_NAME":"STARLINK-30778","OBJECT_ID":"2023-167H","EPOCH":"2026-03-09T06:42:40.120992","MEAN_MOTION":15.26749004,"ECCENTRICITY":0.00012543,"INCLINATION":42.9999,"RA_OF_ASC_NODE":145.6013,"ARG_OF_PERICENTER":255.6078,"MEAN_ANOMALY":104.4634,"EPHEMERIS_TYPE":0,"CLASSIFICATION_TYPE":"U","NORAD_CAT_ID":58182,"ELEMENT_SET_NO":999,"REV_AT_EPOCH":13092,"BSTAR":5.7361494e-5,"MEAN_MOTION_DOT":1.28e-5,"MEAN_MOTION_DDOT":0},{"OBJECT_NAME":"FLOCK 4G-3","OBJECT_ID":"2025-009AG","EPOCH":"2026-03-09T19:14:30.392160","MEAN_MOTION":15.2717931,"ECCENTRICITY":0.00013196,"INCLINATION":97.4062,"RA_OF_ASC_NODE":151.4068,"ARG_OF_PERICENTER":293.2042,"MEAN_ANOMALY":66.9058,"EPHEMERIS_TYPE":0,"CLASSIFICATION_TYPE":"U","NORAD_CAT_ID":62639,"ELEMENT_SET_NO":999,"REV_AT_EPOCH":6372,"BSTAR":0.0004338875,"MEAN_MOTION_DOT":0.00011494,"MEAN_MOTION_DDOT":0}]
