STARLINK-30778          
1 58182U 23167H   26068.27963103  .00001280  00000+0  57361-4 0  9992
2 58182  42.9999 145.6013 0001254 255.6078 104.4634 15.26749004130928
FLOCK 4G-3              
1 62639U 25009AG  26068.80174065  .00011494  00000+0  43389-3 0  9993
2 62639  97.4062 151.4068 0001320 293.2042  66.9058 15.27179310 63727
